SILVERSAT               
1 66909U 98067XV  26042.70038587  .00137849  00000+0  14215-2 0  9998
2 66909  51.6264 197.1110 0002523 274.1167  85.9539 15.63847385 11119
ISS OBJECT XW           
1 66910U 98067XW  26042.46281613  .00120044  00000+0  13239-2 0  9997
2 66910  51.6249 198.5199 0001518 308.9215  51.1644 15.62201503 11071
ISS OBJECT XX           
1 66911U 98067XX  26042.73193591  .00158320  00000+0  15415-2 0  9991
2 66911  51.6241 196.5617 0003214 300.5520  59.5158 15.65220206 11110
ISS OBJECT XY           
1 66912U 98067XY  26042.72297530  .00080190  00000+0  99849-3 0  9992
2 66912  51.6279 198.0151 0000330 250.4462 109.6495 15.59222164 11092
ISS OBJECT XZ           
1 67683U 98067XZ  26043.27304961  .00041232  00000+0  73115-3 0  9998
2 67683  51.6304 197.9345 0010765 104.2322 255.9863 15.49768314   840
GXIBA-1                 
1 67684U 98067YA  26043.27074520  .00080591  00000+0  13791-2 0  9998
2 67684  51.6300 197.9208 0012643  98.4527 261.7896 15.50457317   844
CORAL                   
1 67685U 98067YB  26043.27256020  .00048879  00000+0  85964-3 0  9991
2 67685  51.6304 197.9316 0012718  99.7369 260.5056 15.49900495   843
ISS OBJECT YC           
1 67686U 98067YC  26043.27218528  .00057660  00000+0  10089-2 0  9996
2 67686  51.6307 197.9307 0007850  74.9592 285.2266 15.50029172   844
LEOPARD                 
1 67687U 98067YD  26043.27276080  .00046163  00000+0  81565-3 0  9998
2 67687  51.6308 197.9332 0007869  77.1120 283.0747 15.49848388   763
ISS OBJECT YE           
1 67688U 98067YE  26043.27229961  .00051892  00000+0  91109-3 0  9995
2 67688  51.6309 197.9306 0007761  75.8041 284.3810 15.49977314   761
